OSCAR 7 (AO-7)          
1 07530U 74089B   26157.79404168 -.00000046  00000+0  53545-5 0  9990
2 07530 101.9901 170.9321 0012467 149.5020  23.6960 12.53697891359219
PHASE 3B (AO-10)        
1 14129U 83058B   26156.71565058 -.00000155  00000+0  00000+0 0  9998
2 14129  25.9038 221.4654 6014762 112.5116 319.5552  2.05872928295259
UOSAT 2 (UO-11)         
1 14781U 84021B   26157.68340786  .00001303  00000+0  13826-3 0  9998
2 14781  97.8052 123.3759 0006693 208.6330 151.4521 14.90757893255565
LUSAT (LO-19)           
1 20442U 90005G   26157.57710782  .00000130  00000+0  63146-4 0  9991
2 20442  98.8853 179.0901 0010613 234.2040 125.8157 14.34119987900878
EYESAT A (AO-27)        
1 22825U 93061C   26157.16166304  .00000127  00000+0  65390-4 0  9992
2 22825  98.6881 224.5788 0009319 128.3120 231.8902 14.30939453705420
ITAMSAT (IO-26)         
1 22826U 93061D   26157.42397614  .00000118  00000+0  61228-4 0  9998
2 22826  98.6828 224.7574 0010032 112.9281 247.2962 14.31365980705772
RADIO ROSTO (RS15)      
1 23439U 94085A   26157.82804745 -.00000037  00000+0  16114-3 0  9992
2 23439  64.8186 319.9701 0155632   5.7894 354.4784 11.27583599294731
JAS-2 (FO-29)           
1 24278U 96046B   26157.81233277 -.00000024  00000+0  81643-5 0  9995
2 24278  98.5249   8.1055 0350721 123.2843 240.2413 13.53273649471766
TECHSAT 1B (GO-32)      
1 25397U 98043D   26157.59817633  .00000069  00000+0  49896-4 0  9997
2 25397  99.0065 150.0898 0000464 193.9791 166.1374 14.24426350449827
ISS (ZARYA)             
1 25544U 98067A   26157.86947977  .00009276  00000+0  17237-3 0  9994
2 25544  51.6338 351.1688 0006978 142.0049 218.1433 15.49642340570158
PCSAT (NO-44)           
1 26931U 01043C   26157.61264853  .00000160  00000+0  90579-4 0  9995
2 26931  67.0513 271.6217 0006117 264.1922  95.8483 14.31952422288932
SAUDISAT 1C (SO-50)     
1 27607U 02058C   26157.70320937  .00001144  00000+0  15193-3 0  9990
2 27607  64.5504 161.4222 0075466 264.4088  94.8408 14.83024338262904
CUTE-1 (CO-55)          
1 27844U 03031E   26157.49994927  .00000321  00000+0  15775-3 0  9999
2 27844  98.6735 166.1932 0008851 210.1158 149.9513 14.24329258190151
CUBESAT XI-IV (CO-57)   
1 27848U 03031J   26157.55333329  .00000268  00000+0  13659-3 0  9992
2 27848  98.6767 165.9671 0008459 230.3427 129.7005 14.23615194189868
MOZHAETS 4 (RS22)       
1 27939U 03042A   26157.89863172  .00001485  00000+0  23703-3 0  9999
2 27939  98.3470 341.9669 0010242 306.4946 160.0415 14.73450646214039
CUBESAT XI-V            
1 28895U 05043F   26157.66697904  .00001638  00000+0  26546-3 0  9995
2 28895  98.2975 313.0688 0013038 235.8954 124.1016 14.72603733100208
CUTE-1.7+APD II (CO-65) 
1 32785U 08021C   26157.77451933  .00006623  00000+0  41855-3 0  9998
2 32785  97.8270 138.9776 0010426  69.3046 290.9298 15.09350971983629
SEEDS II (CO-66)        
1 32791U 08021J   26157.55833225  .00023420  00000+0  75009-3 0  9991
2 32791  97.7518 154.9517 0002602  35.3933 324.7480 15.32385592985664
YUBILEINY (RS30)        
1 32953U 08025A   26157.87775050 -.00000016  00000+0 -18451-3 0  9997
2 32953  82.5045   1.8542 0019300 337.0035  23.0179 12.43178690818417
KKS-1 (KISEKI)          
1 33499U 09002H   26157.79925389  .00001481  00000+0  18860-3 0  9991
2 33499  98.1193  80.0770 0007192 334.4433  25.6423 14.83097275934651
SWISSCUBE               
1 35932U 09051B   26156.46919883  .00001141  00000+0  23506-3 0  9990
2 35932  98.4043  64.1532 0005430 246.3597 113.7034 14.62458715887444
BEESAT-1                
1 35933U 09051C   26157.84162723  .00000916  00000+0  19376-3 0  9996
2 35933  98.3972  65.2066 0003901 258.2336 101.8427 14.61703876887672
ITUPSAT1                
1 35935U 09051E   26155.69953963  .00000958  00000+0  20796-3 0  9997
2 35935  98.4056  62.2366 0006134 280.9538  79.0971 14.60421767886916
XIWANG-1 (HOPE-1)       
1 36122U 09072B   26157.83200199  .00000307  00000+0  91931-3 0  9990
2 36122 100.4028 111.8301 0006778 257.6443 102.3911 13.16440533791649
O/OREOS (USA 219)       
1 37224U 10062C   26156.87810413  .00002979  00000+0  28689-3 0  9991
2 37224  71.9702 105.9546 0012370  87.8701 272.3886 14.93695134114951
JUGNU                   
1 37839U 11058B   26157.30783240  .00000452  00000+0  96537-4 0  9997
2 37839  19.9622  14.5210 0018503 316.3264 216.4094 14.13773989757485
SRMSAT                  
1 37841U 11058D   26157.27188351  .00000385  00000+0  65061-4 0  9991
2 37841  19.9704 125.5359 0011947  84.3565  18.6414 14.11573396756279
STRAND-1                
1 39090U 13009E   26157.75196470  .00000310  00000+0  11872-3 0  9999
2 39090  98.3920 338.2434 0007401 261.0768  98.9581 14.37157162695561
ZACUBE-1 (TSHEPISOSAT)  
1 39417U 13066B   26157.67555399  .00004996  00000+0  38849-3 0  9992
2 39417  97.8101 119.9558 0039963 284.7807  74.8990 15.01121821679153
GOMX-1                  
1 39430U 13066Q   26157.83560622  .00001996  00000+0  30356-3 0  9992
2 39430  97.6490 358.9510 0130117 110.4403 251.0830 14.69419907668394
